[{"OBJECT_NAME":"STARLINK-5228","OBJECT_ID":"2022-141Z","EPOCH":"2026-03-09T22:00:01.999584","MEAN_MOTION":15.24334038,"ECCENTRICITY":0.00015239,"INCLINATION":53.2168,"RA_OF_ASC_NODE":2.2067,"ARG_OF_PERICENTER":88.3857,"MEAN_ANOMALY":310.0088,"EPHEMERIS_TYPE":0,"CLASSIFICATION_TYPE":"U","NORAD_CAT_ID":54180,"ELEMENT_SET_NO":999,"REV_AT_EPOCH":574,"BSTAR":0.0018120877,"MEAN_MOTION_DOT":0.0004484,"MEAN_MOTION_DDOT":0},{"OBJECT_NAME":"CZ-6A DEB","OBJECT_ID":"2022-151VX","EPOCH":"2026-03-09T17:15:51.308640","MEAN_MOTION":15.17668829,"ECCENTRICITY":0.00301527,"INCLINATION":98.6392,"RA_OF_ASC_NODE":152.1249,"ARG_OF_PERICENTER":179.6266,"MEAN_ANOMALY":180.4992,"EPHEMERIS_TYPE":0,"CLASSIFICATION_TYPE":"U","NORAD_CAT_ID":55206,"ELEMENT_SET_NO":999,"REV_AT_EPOCH":17057,"BSTAR":0.00785456,"MEAN_MOTION_DOT":0.00163373,"MEAN_MOTION_DDOT":0}]
